[{"OBJECT_NAME":"STARLINK-32610","OBJECT_ID":"2024-210N","EPOCH":"2026-03-09T08:07:26.325696","MEAN_MOTION":15.27594292,"ECCENTRICITY":0.00011868,"INCLINATION":42.995,"RA_OF_ASC_NODE":182.0282,"ARG_OF_PERICENTER":291.3499,"MEAN_ANOMALY":68.7225,"EPHEMERIS_TYPE":0,"CLASSIFICATION_TYPE":"U","NORAD_CAT_ID":61971,"ELEMENT_SET_NO":999,"REV_AT_EPOCH":7486,"BSTAR":0.0010545656,"MEAN_MOTION_DOT":0.00028884,"MEAN_MOTION_DDOT":0},{"OBJECT_NAME":"SIMSAT 1","OBJECT_ID":"2000-026A","EPOCH":"2026-03-09T17:22:54.646176","MEAN_MOTION":15.27666538,"ECCENTRICITY":0.00084816,"INCLINATION":86.3501,"RA_OF_ASC_NODE":180.5413,"ARG_OF_PERICENTER":14.8337,"MEAN_ANOMALY":345.3157,"EPHEMERIS_TYPE":0,"CLASSIFICATION_TYPE":"U","NORAD_CAT_ID":26365,"ELEMENT_SET_NO":999,"REV_AT_EPOCH":42720,"BSTAR":0.00013499313,"MEAN_MOTION_DOT":3.69e-5,"MEAN_MOTION_DDOT":0}]
